NORAD_CAT_ID,OBJECT_NAME,OBJECT_TYPE,EPOCH,MEAN_MOTION,ECCENTRICITY,INCLINATION,RA_OF_ASC_NODE,ARG_OF_PERICENTER,MEAN_ANOMALY,BSTAR,MEAN_MOTION_DOT,MEAN_MOTION_DDOT,TLE_LINE0,TLE_LINE1,TLE_LINE2,SEMIMAJOR_AXIS,PERIOD,APOGEE,PERIGEE,DECAYED
53552.0,STARLINK-4495,PAYLOAD,2023-07-17 22:51:25,15.08850246,0.0001251,53.2172,79.4838,107.6389,252.474,0.00046166,7.069e-05,0.0,0 STARLINK-4495,1 53552U 22101AB  23198.95238124  .00007069  00000-0  46166-3 0  9991,2 53552  53.2172  79.4838 0001251 107.6389 252.4740 15.08850246 50518,6917.849,95.437,540.579,538.849,0.0
53552.0,STARLINK-4495,PAYLOAD,2023-07-19 01:52:59,15.08841922,0.0001142,53.2177,74.4281,96.8179,263.2943,8.6371e-05,1.087e-05,0.0,0 STARLINK-4495,1 53552U 22101AB  23200.07846388  .00001087  00000-0  86371-4 0  9992,2 53552  53.2177  74.4281 0001142  96.8179 263.2943 15.08841922 50689,6917.875,95.437,540.53,538.949,0.0
53552.0,STARLINK-4495,PAYLOAD,2023-07-20 14:26:52,15.08835989,0.0001051,53.2164,67.5888,95.6531,264.4581,0.0001096,1.457e-05,0.0,0 STARLINK-4495,1 53552U 22101AB  23201.60199090  .00001457  00000-0  10960-3 0  9994,2 53552  53.2164  67.5888 0001051  95.6531 264.4581 15.08835989 50912,6917.893,95.438,540.485,539.031,0.0
53552.0,STARLINK-4495,PAYLOAD,2023-07-20 20:48:24,15.08848211,0.0001146,53.2167,66.4,110.5841,249.5274,1.9947e-05,3e-07,0.0,0 STARLINK-4495,1 53552U 22101AB  23201.86694519  .00000030  00000-0  19947-4 0  9999,2 53552  53.2167  66.4000 0001146 110.5841 249.5274 15.08848211 50954,6917.855,95.437,540.513,538.928,0.0
53552.0,STARLINK-4495,PAYLOAD,2023-07-21 19:03:48,15.08845966,0.0001047,53.217,62.2382,84.1188,275.9923,0.00017764,2.541e-05,0.0,0 STARLINK-4495,1 53552U 22101AB  23202.79430751  .00002541  00000-0  17764-3 0  9991,2 53552  53.2170  62.2382 0001047  84.1188 275.9923 15.08845966 51099,6917.862,95.437,540.451,539.003,0.0
53552.0,STARLINK-4495,PAYLOAD,2023-07-24 13:50:00,15.0884151,0.0001073,53.2168,49.7489,75.6393,284.4719,0.00018793,2.704e-05,0.0,0 STARLINK-4495,1 53552U 22101AB  23205.57639221  .00002704  00000-0  18793-3 0  9997,2 53552  53.2168  49.7489 0001073  75.6393 284.4719 15.08841510 52164,6917.876,95.437,540.483,538.998,0.0
53552.0,STARLINK-4495,PAYLOAD,2023-07-25 13:40:47,15.08831508,0.0001899,53.2148,45.2834,118.147,241.9714,0.00036149,5.468e-05,0.0,0 STARLINK-4495,1 53552U 22101AB  23206.56999548  .00005468  00000-0  36149-3 0  9993,2 53552  53.2148  45.2834 0001899 118.1470 241.9714 15.08831508 52318,6917.906,95.438,541.085,538.458,0.0
53552.0,STARLINK-4495,PAYLOAD,2023-07-26 11:56:11,15.08841356,9.78e-05,53.2175,41.124,107.6581,252.4518,7.2966e-05,8.74e-06,0.0,0 STARLINK-4495,1 53552U 22101AB  23207.49735076  .00000874  00000-0  72966-4 0  9994,2 53552  53.2175  41.1240 0000978 107.6581 252.4518 15.08841356 52453,6917.876,95.437,540.418,539.065,0.0
53552.0,STARLINK-4495,PAYLOAD,2023-07-26 19:53:05,15.08865029,9.02e-05,53.2172,39.639,97.3828,262.7267,-0.00038129,-6.355e-05,0.0,0 STARLINK-4495,1 53552U 22101AB  23207.82853610 -.00006355  00000-0 -38129-3 0  9990,2 53552  53.2172  39.6390 0000902  97.3828 262.7267 15.08865029 51855,6917.804,95.436,540.293,539.045,0.0
53552.0,STARLINK-4495,PAYLOAD,2023-07-27 05:25:26,15.08832177,0.0001514,53.2176,37.8532,94.6592,265.4573,2.2266e-05,6.6e-07,0.0,0 STARLINK-4495,1 53552U 22101AB  23208.22599571  .00000066  00000-0  22266-4 0  9995,2 53552  53.2176  37.8532 0001514  94.6592 265.4573 15.08832177 51910,6917.904,95.438,540.817,538.722,0.0
53552.0,STARLINK-4495,PAYLOAD,2023-07-27 13:22:21,15.08830508,0.0001121,53.2175,36.3674,110.094,250.0173,-3.2087e-05,-7.98e-06,0.0,0 STARLINK-4495,1 53552U 22101AB  23208.55719670 -.00000798  00000-0 -32087-4 0  9991,2 53552  53.2175  36.3674 0001121 110.0940 250.0173 15.08830508 52614,6917.909,95.438,540.55,538.999,0.0
53552.0,STARLINK-4495,PAYLOAD,2023-07-27 19:43:54,15.08833389,9.74e-05,53.2174,35.1789,107.0022,253.1076,-8.6206e-06,-4.25e-06,0.0,0 STARLINK-4495,1 53552U 22101AB  23208.82215630 -.00000425  00000-0 -86206-5 0  9998,2 53552  53.2174  35.1789 0000974 107.0022 253.1076 15.08833389 52659,6917.901,95.438,540.439,539.092,0.0
53552.0,STARLINK-4495,PAYLOAD,2023-07-28 11:37:45,15.088379,0.0001005,53.2179,32.2056,107.6402,252.47,8.5517e-05,1.073e-05,0.0,0 STARLINK-4495,1 53552U 22101AB  23209.48455571  .00001073  00000-0  85517-4 0  9992,2 53552  53.2179  32.2056 0001005 107.6402 252.4700 15.08837900 52753,6917.887,95.438,540.447,539.057,0.0
53552.0,STARLINK-4495,PAYLOAD,2023-07-29 19:25:28,15.08849426,0.0001229,53.2177,26.2577,103.1562,256.9568,0.00035459,5.361e-05,0.0,0 STARLINK-4495,1 53552U 22101AB  23210.80935514  .00005361  00000-0  35459-3 0  9993,2 53552  53.2177  26.2577 0001229 103.1562 256.9568 15.08849426 52306,6917.852,95.437,540.567,538.866,0.0
53552.0,STARLINK-4495,PAYLOAD,2023-07-30 11:19:19,15.08842875,0.0001128,53.2174,23.2838,90.0138,270.0984,0.00014944,2.091e-05,0.0,0 STARLINK-4495,1 53552U 22101AB  23211.47175852  .00002091  00000-0  14944-3 0  9991,2 53552  53.2174  23.2838 0001128  90.0138 270.0984 15.08842875 52402,6917.872,95.437,540.517,538.956,0.0
53552.0,STARLINK-4495,PAYLOAD,2023-07-31 17:31:39,15.08849141,0.0001003,53.2182,17.6337,93.2654,266.8453,0.0002801,4.174e-05,0.0,0 STARLINK-4495,1 53552U 22101AB  23212.73031703  .00004174  00000-0  28010-3 0  9990,2 53552  53.2182  17.6337 0001003  93.2654 266.8453 15.08849141 52599,6917.852,95.437,540.411,539.024,0.0
53552.0,STARLINK-4495,PAYLOAD,2023-08-01 17:22:26,15.08839804,9.5e-05,53.2175,13.1733,87.5933,272.5168,0.00010488,1.382e-05,0.0,0 STARLINK-4495,1 53552U 22101AB  23213.72392112  .00001382  00000-0  10488-3 0  9992,2 53552  53.2175  13.1733 0000950  87.5933 272.5168 15.08839804 52747,6917.881,95.438,540.403,539.089,0.0
53552.0,STARLINK-4495,PAYLOAD,2023-08-02 17:13:13,15.08850079,0.000103,53.2178,8.7131,85.9105,274.2005,0.00023838,3.509e-05,0.0,0 STARLINK-4495,1 53552U 22101AB  23214.71751605  .00003509  00000-0  23838-3 0  9994,2 53552  53.2178   8.7131 0001030  85.9105 274.2005 15.08850079 52897,6917.85,95.437,540.427,539.002,0.0
53552.0,STARLINK-4495,PAYLOAD,2023-08-03 09:07:04,15.08843747,0.0001045,53.2173,5.7397,86.2893,273.8219,0.00014989,2.099e-05,0.0,0 STARLINK-4495,1 53552U 22101AB  23215.37991764  .00002099  00000-0  14989-3 0  9999,2 53552  53.2173   5.7397 0001045  86.2893 273.8219 15.08843747 52994,6917.869,95.437,540.457,539.011,0.0
53552.0,STARLINK-4495,PAYLOAD,2023-08-04 10:33:15,15.08837975,9.73e-05,53.2179,0.9821,90.5176,269.5927,-6.7667e-05,-1.364e-05,0.0,0 STARLINK-4495,1 53552U 22101AB  23216.43975829 -.00001364  00000-0 -67667-4 0  9999,2 53552  53.2179   0.9821 0000973  90.5176 269.5927 15.08837975 53153,6917.887,95.438,540.425,539.078,0.0
53552.0,STARLINK-4495,PAYLOAD,2023-08-05 16:45:34,15.08858505,0.0001006,53.2179,355.3327,93.0805,267.0302,0.00045866,7.023e-05,0.0,0 STARLINK-4495,1 53552U 22101AB  23217.69831301  .00007023  00000-0  45866-3 0  9996,2 53552  53.2179 355.3327 0001006  93.0805 267.0302 15.08858505 53349,6917.824,95.436,540.385,538.993,0.0
53552.0,STARLINK-4495,PAYLOAD,2023-08-06 02:17:53,15.08839264,0.0001192,53.2177,353.5482,105.1949,254.9175,0.00017492,2.497e-05,0.0,0 STARLINK-4495,1 53552U 22101AB  23218.09575954  .00002497  00000-0  17492-3 0  9994,2 53552  53.2177 353.5482 0001192 105.1949 254.9175 15.08839264 53400,6917.883,95.438,540.572,538.923,0.0
53552.0,STARLINK-4495,PAYLOAD,2023-08-06 10:14:49,15.08820771,0.0001254,53.2179,352.0627,104.0741,256.0391,-0.00036279,-6.054e-05,0.0,0 STARLINK-4495,1 53552U 22101AB  23218.42696742 -.00006054  00000-0 -36279-3 0  9999,2 53552  53.2179 352.0627 0001254 104.0741 256.0391 15.08820771 53455,6917.939,95.439,540.672,538.937,0.0
53552.0,STARLINK-4495,PAYLOAD,2023-08-07 08:30:14,15.08837734,9.32e-05,53.2168,347.899,106.326,253.7835,0.0013114,0.00020643,0.0,0 STARLINK-4495,1 53552U 22101AB  23219.35433902  .00020643  00000-0  13114-2 0  9999,2 53552  53.2168 347.8990 0000932 106.3260 253.7835 15.08837734 53590,6917.887,95.438,540.397,539.108,0.0
53552.0,STARLINK-4495,PAYLOAD,2023-08-08 01:59:29,15.08856146,8.21e-05,53.2163,344.6276,102.7642,257.3442,0.001064,0.00016694,0.0,0 STARLINK-4495,1 53552U 22101AB  23220.08297502  .00016694  00000-0  10640-2 0  9997,2 53552  53.2163 344.6276 0000821 102.7642 257.3442 15.08856146 53703,6917.831,95.437,540.264,539.128,0.0
53552.0,STARLINK-4495,PAYLOAD,2023-08-08 14:42:33,15.08862869,8.61e-05,53.2165,342.2486,100.8689,259.2401,0.00075934,0.00011825,0.0,0 STARLINK-4495,1 53552U 22101AB  23220.61288958  .00011825  00000-0  75934-3 0  9990,2 53552  53.2165 342.2486 0000861 100.8689 259.2401 15.08862869 53789,6917.81,95.436,540.271,539.08,0.0
53552.0,STARLINK-4495,PAYLOAD,2023-08-08 17:53:19,15.08873667,9.12e-05,53.2167,341.6542,94.0611,266.0485,0.0011058,0.00017371,0.0,0 STARLINK-4495,1 53552U 22101AB  23220.74536633  .00017371  00000-0  11058-2 0  9998,2 53552  53.2167 341.6542 0000912  94.0611 266.0485 15.08873667 53802,6917.777,95.435,540.273,539.012,0.0
53552.0,STARLINK-4495,PAYLOAD,2023-08-09 08:11:47,15.08846645,9.64e-05,53.2157,338.9769,109.6053,250.5043,8.4337e-05,1.055e-05,0.0,0 STARLINK-4495,1 53552U 22101AB  23221.34152755  .00001055  00000-0  84337-4 0  9998,2 53552  53.2157 338.9769 0000964 109.6053 250.5043 15.08846645 53894,6917.86,95.437,540.392,539.058,0.0
53552.0,STARLINK-4495,PAYLOAD,2023-08-10 08:02:35,15.08845113,8.91e-05,53.2175,334.5175,103.6657,256.4434,0.00013027,1.786e-05,0.0,0 STARLINK-4495,1 53552U 22101AB  23222.33512804  .00001786  00000-0  13027-3 0  9991,2 53552  53.2175 334.5175 0000891 103.6657 256.4434 15.08845113 54046,6917.865,95.437,540.346,539.113,0.0
53552.0,STARLINK-4495,PAYLOAD,2023-08-11 07:53:22,15.08836698,8.25e-05,53.2176,330.059,98.1964,261.9122,2.024e-05,3.4e-07,0.0,0 STARLINK-4495,1 53552U 22101AB  23223.32873044  .00000034  00000-0  20240-4 0  9998,2 53552  53.2176 330.0590 0000825  98.1964 261.9122 15.08836698 54194,6917.89,95.438,540.326,539.185,0.0
